344P/Read,e,3.4921,273.1526,140.3884,4.863820,0.0918836,0.42244923,173.0498,12/29.0/2021,2000,g 13.0,4.0
# From MPC109148
345P/LINEAR,e,2.7274,154.5113,196.4704,4.037214,0.1215014,0.22130856,241.5720,12/29.0/2021,2000,g 12.0,4.0
# From MPC110086
346P/Catalina,e,22.1914,102.4602,335.9586,4.474772,0.1041233,0.50266920,185.3005,12/29.0/2021,2000,g 14.0,4.0
# From MPC108599
347P/PANSTARRS,e,11.7519,261.0225,98.3826,3.605090,0.1439892,0.38597663,278.2091,12/29.0/2021,2000,g 15.0,4.0
# From MPEC 2021-Y10
348P/PANSTARRS,e,17.7402,312.9412,135.6589,3.150301,0.1762691,0.30677365,351.9779,12/29.0/2021,2000,g 14.0,4.0
# From MPC112394
349P/Lemmon,e,5.4909,331.7454,256.0023,3.574339,0.1458513,0.29866033,231.5580,12/29.0/2021,2000,g 14.0,4.0
# From MPC111775
350P/McNaught,e,7.3598,65.3109,139.8589,4.088484,0.1192232,0.09219336,176.0751,12/29.0/2021,2000,g 14.0,4.0
# From MPC105244
351P/Wiegert-PANSTARRS,e,12.7844,283.4429,352.6820,4.438174,0.1054138,0.29556413,235.2801,12/29.0/2021,2000,g 12.5,4.0
# From MPC110086
352P/Skiff,e,21.0105,28.0341,309.2575,6.640634,0.0575957,0.61818745,95.0424,12/29.0/2021,2000,g 11.5,4.0
# From MPEC 2020-AA5
353P/McNaught,e,28.4200,121.5536,230.4118,4.171004,0.1157026,0.47030819,169.7926,12/29.0/2021,2000,g 14.5,4.0
# From MPC105545
354P/LINEAR,e,5.2556,320.1281,132.8935,2.289333,0.2845382,0.12570463,173.8444,12/29.0/2021,2000,g 15.5,4.0
# From MPEC 2020-AA5
355P/LINEAR-NEAT,e,11.0430,51.4296,336.2696,3.470956,0.1524160,0.50752025,234.3114,12/29.0/2021,2000,g 15.5,2.0
# From MPEC 2021-F20
356P/WISE,e,9.6380,160.7978,225.9939,4.158589,0.1162211,0.35540192,171.0578,12/29.0/2021,2000,g 14.0,4.0
# From MPC114609
357P/Hill,e,6.3135,44.5621,1.3878,4.459458,0.1046601,0.43518862,137.0520,12/29.0/2021,2000,g 15.5,4.0
# From MPEC 2020-HN5
358P/PANSTARRS,e,11.0593,85.7030,299.7544,3.146941,0.1765514,0.23871311,239.5445,12/29.0/2021,2000,g 18.0,4.0
# From MPC110086
359P/LONEOS,e,10.2675,149.7558,200.1979,4.639799,0.0986178,0.32420220,156.7692,12/29.0/2021,2000,g 13.5,4.0
# From MPC108599
360P/WISE,e,24.1100,2.1909,354.1502,3.701456,0.1384029,0.49913291,220.2863,12/29.0/2021,2000,g 19.5,6.0
# From MPC114609
361P/Spacewatch,e,13.8973,203.2515,219.0219,4.937281,0.0898405,0.43840777,114.5868,12/29.0/2021,2000,g 12.0,4.0
# From MPEC 2017-V13
362P/,e,15.5562,192.5551,53.6835,3.970039,0.1245983,0.27910565,243.5461,12/29.0/2021,2000,g 12.9,2.0
# From MPC114609
363P/Lemmon,e,5.4115,146.8837,341.1797,3.558522,0.1468249,0.52244678,205.9462,12/29.0/2021,2000,g 17.5,4.0
# From MPEC 2021-F20
364P/PANSTARRS,e,12.1366,46.1734,212.0167,2.879609,0.2016990,0.72198940,258.9572,12/29.0/2021,2000,g 17.0,2.0
# From MPC111775
365P/PANSTARRS,e,9.8199,86.9015,66.7736,3.170564,0.1745819,0.57949259,246.5600,12/29.0/2021,2000,g 17.0,4.0
# From MPC114610
366P/Spacewatch,e,8.8580,70.7620,153.1080,3.496177,0.1507696,0.34808642,189.6616,12/29.0/2021,2000,g 15.0,4.0
# From MPC112395
367P/Catalina,e,8.4611,58.7220,172.8780,3.506434,0.1501086,0.27997963,193.3171,12/29.0/2021,2000,g 17.5,2.0
# From MPC114610
368P/NEAT,e,15.4808,257.9114,118.8281,5.527817,0.0758357,0.62660810,91.0792,12/29.0/2021,2000,g 14.0,4.0
# From MPC114610
369P/Hill,e,10.3181,47.2911,13.1622,4.383184,0.1074038,0.55477857,125.7191,12/29.0/2021,2000,g 15.0,4.0
# From MPEC 2021-F20
370P/NEAT,e,19.4119,55.0971,356.6821,6.434314,0.0603880,0.61489081,78.3871,12/29.0/2021,2000,g 13.0,4.0
# From MPC114610
371P/LINEAR-Skiff,e,17.3794,67.2781,308.4914,4.180879,0.1152929,0.47688351,136.1175,12/29.0/2021,2000,g 16.0,4.0
# From MPEC 2020-K19
372P/McNaught,e,9.5097,325.8169,27.4336,4.505892,0.1030464,0.15272449,119.8443,12/29.0/2021,2000,g 13.5,4.0
# From MPEC 2021-F20
373P/Rinner,e,13.7648,231.9506,221.0558,3.802523,0.1329218,0.39237969,132.2918,12/29.0/2021,2000,g 14.5,4.0
# From MPC114610
374P/Larson,e,10.7658,7.9132,51.4622,4.972681,0.0888829,0.46282440,96.2616,12/29.0/2021,2000,g 14.0,4.0
# From MPEC 2021-F20
375P/Hill,e,17.3614,359.9500,119.4198,5.553738,0.0753054,0.65858737,83.1494,12/29.0/2021,2000,g 16.0,4.0
# From MPEC 2021-S45
376P/LONEOS,e,1.1856,314.5872,284.5742,5.808348,0.0704085,0.51695220,58.1179,12/29.0/2021,2000,g 12.5,4.0
# From MPEC 2021-N06
377P/Scotti,e,9.0238,226.0632,355.0515,6.708203,0.0567276,0.25199673,30.3474,12/29.0/2021,2000,g  9.5,4.0
# From MPEC 2021-Y10
378P/McNaught,e,19.0454,94.2905,193.7993,6.360545,0.0614416,0.46925148,26.8209,12/29.0/2021,2000,g 12.0,4.0
# From MPC115889
379P/Spacewatch,e,12.4380,183.8222,30.7905,3.516625,0.1494566,0.34107207,131.6333,12/29.0/2021,2000,g 15.0,4.0
# From MPEC 2020-KB7
380P/PANSTARRS,e,8.2618,132.8790,87.3335,4.478784,0.1039834,0.33568273,98.0856,12/29.0/2021,2000,g 12.5,4.0
# From MPEC 2021-J28
381P/LINEAR-Spacewatch,e,28.3777,173.7618,173.2144,7.128882,0.0517812,0.68192162,42.6602,12/29.0/2021,2000,g 17.5,2.0
# From MPEC 2021-WD8
382P/Larson,e,8.1971,173.9012,171.8787,6.483865,0.0596971,0.31849318,356.4760,12/29.0/2021,2000,g  8.0,4.0
# From MPC118844
383P/Christensen,e,12.3226,207.8478,133.7215,3.545992,0.1476037,0.59959828,117.2836,12/29.0/2021,2000,g 18.0,4.0
# From MPEC 2021-S45
384P/Kowalski,e,7.2845,354.2303,37.6169,2.900699,0.1995033,0.61582688,161.4513,12/29.0/2021,2000,g 19.5,4.0
# From MPEC 2021-F20
385P/Hill,e,16.8317,357.0606,44.3240,4.288464,0.1109817,0.40169540,92.7750,12/29.0/2021,2000,g 13.0,4.0
# From MPEC 2021-L04
386P/PANSTARRS,e,15.2297,134.9458,353.1828,4.055230,0.1206926,0.41623312,59.9657,12/29.0/2021,2000,g 14.5,4.0
# From MPEC 2021-J28
387P/Boattini,e,8.9219,259.2951,162.7736,4.797702,0.0937895,0.73631996,79.2160,12/29.0/2021,2000,g 15.0,4.0
# From MPEC 2021-S45
388P/Gibbs,e,23.8761,37.0419,42.3325,5.242729,0.0821047,0.61819731,73.0183,12/29.0/2021,2000,g 13.0,4.0
# From MPEC 2021-S45
390P/Gibbs,e,18.5621,152.2747,232.3604,5.805953,0.0704521,0.70727669,45.5545,12/29.0/2021,2000,g 12.0,4.0
# From MPEC 2021-F20
391P/Kowalski,e,21.2742,124.7343,187.1526,4.680923,0.0973211,0.12041685,134.0980,12/29.0/2021,2000,g  8.0,4.0
# From MPEC 2021-J28
392P/LINEAR,e,4.9312,24.8826,71.9284,6.143336,0.0647288,0.68284639,41.2453,12/29.0/2021,2000,g 14.5,4.0
# From MPEC 2021-BE3
393P/Spacewatch-Hill,e,16.7888,36.4079,328.4459,4.788819,0.0940506,0.12067991,74.6464,12/29.0/2021,2000,g 11.0,4.0
# From MPEC 2020-KB7
394P/PANSTARRS,e,8.5294,98.1252,54.5098,4.331442,0.1093340,0.36764351,83.0823,12/29.0/2021,2000,g 16.0,2.4
# From MPEC 2021-Y10
395P/Catalina-NEAT,e,3.2762,223.6495,89.8618,6.562546,0.0586267,0.38059375,359.9157,12/29.0/2021,2000,g 10.0,4.0
# From MPEC 2020-KB7
396P/,e,5.4364,136.6629,8.5301,6.813350,0.0554196,0.41575153,47.3226,12/29.0/2021,2000,g 12.0,4.0
# From MPEC 2021-O56
397P/Lemmon,e,10.9290,8.1975,14.4678,3.828590,0.1315666,0.40519759,73.3472,12/29.0/2021,2000,g 12.0,4.0
# From MPEC 2021-L04
398P/Boattini,e,11.0153,127.4587,320.2167,3.127674,0.1781853,0.58269695,65.4384,12/29.0/2021,2000,g 15.5,4.0
# From MPEC 2021-Y10
399P/PANSTARRS,e,13.3188,207.1406,214.3090,3.790812,0.1335383,0.44706964,29.4316,12/29.0/2021,2000,g 14.0,4.0
# From MPEC 2020-FB5
400P/PANSTARRS,e,10.9296,176.3922,238.8071,3.560791,0.1466846,0.40930267,47.2089,12/29.0/2021,2000,g 15.5,2.8
# From MPEC 2021-R75
401P/McNaught,e,12.8027,359.8803,309.3715,5.774265,0.0710328,0.57997555,53.4811,12/29.0/2021,2000,g 12.5,4.0
# From MPEC 2021-Y10
402P/LINEAR,e,30.8513,123.0917,326.7362,7.015496,0.0530416,0.43869451,0.7649,12/29.0/2021,2000,g  8.0,4.0
# From MPEC 2021-J28
403P/Catalina,e,12.3216,163.8124,277.6538,5.427868,0.0779400,0.50355566,36.5257,12/29.0/2021,2000,g 12.0,4.0
# From MPEC 2021-WD8
404P/Bressi,e,9.7143,261.0370,165.2163,4.798493,0.0937663,0.13590285,299.1699,12/29.0/2021,2000,g 10.0,4.0
# From MPEC 2021-L04
405P/Lemmon,e,9.3655,3.3148,112.2226,3.607844,0.1438244,0.68912726,53.1723,12/29.0/2021,2000,g 17.5,4.0
# From MPEC 2021-F20
406P/Gibbs,e,1.2135,11.4741,352.3987,3.575334,0.1457905,0.54205952,68.4066,12/29.0/2021,2000,g 17.0,4.0
# From MPEC 2021-F20
407P/PANSTARRS-Fuls,e,4.8844,80.7233,92.9310,3.465198,0.1527960,0.38382569,106.4484,12/29.0/2021,2000,g 14.0,4.0
# From MPEC 2021-Y10
408P/Novichonok-Gerke,e,19.3497,189.4362,226.3008,4.752419,0.0951332,0.27022291,333.4528,12/29.0/2021,2000,g 11.0,4.0
# From MPEC 2021-UA9
409P/LONEOS-Hill,e,17.1190,143.6706,15.1234,6.044705,0.0663195,0.70983212,22.2085,12/29.0/2021,2000,g 14.0,4.0
# From MPEC 2021-W31
410P/NEAT-LINEAR,e,9.3936,139.9806,313.0916,6.635697,0.0576600,0.51068431,10.8657,12/29.0/2021,2000,g 12.5,4.0
# From MPEC 2021-J28
411P/Christensen,e,12.3782,77.6645,46.6545,5.816638,0.0702580,0.58080122,23.7921,12/29.0/2021,2000,g 13.5,4.0
# From MPEC 2021-F20
412P/WISE,e,8.9312,0.8469,155.9246,3.109475,0.1797519,0.47968968,69.8638,12/29.0/2021,2000,g 17.0,4.0
# From MPEC 2021-O56
413P/Larson,e,15.9783,39.0248,186.0509,3.710067,0.1379213,0.42320667,22.3113,12/29.0/2021,2000,g 14.0,4.0
# From MPEC 2021-BE3
414P/STEREO,e,23.3848,257.7894,210.7255,2.794172,0.2110204,0.81162552,71.2481,12/29.0/2021,2000,g 19.0,4.0
# From MPEC 2021-N06
415P/Tenagra,e,31.7921,160.2948,346.2037,4.114870,0.1180783,0.19471170,37.4479,12/29.0/2021,2000,g 12.0,4.0
# From MPEC 2021-L04
416P/Scotti,e,3.3613,355.8119,134.4889,4.012386,0.1226309,0.45430253,38.8248,12/29.0/2021,2000,g 15.5,4.0
# From MPEC 2021-W31
417P/NEOWISE,e,8.1284,111.3353,129.4826,3.350442,0.1607129,0.55477088,40.3003,12/29.0/2021,2000,g 16.5,4.0
# From MPEC 2021-L04
418P/LINEAR,e,5.7975,277.6569,307.1014,5.079222,0.0861010,0.66473263,6.2366,12/29.0/2021,2000,g 13.0,4.0
# From MPEC 2021-S45
419P/PANSTARRS,e,2.8029,40.3899,187.5015,3.520668,0.1491992,0.27761966,9.3308,12/29.0/2021,2000,g 12.5,4.0
# From MPEC 2021-S45
420P/Hill,e,14.5033,173.9556,157.1192,5.524713,0.0758996,0.49529804,349.0220,12/29.0/2021,2000,g 11.5,4.0
# From MPEC 2021-W31
421P/McNaught,e,10.0800,55.3487,259.8294,5.075455,0.0861969,0.67553334,29.0636,12/29.0/2021,2000,g 14.0,4.0
# From MPEC 2021-W31
422P/Christensen,e,39.5357,36.0521,305.1536,6.320883,0.0620208,0.50873898,359.0175,12/29.0/2021,2000,g 11.0,4.0
# From MPEC 2021-N06
